SPAWAR-CAL-R            
1 43776U 18099U   26067.65115975  .00003570  00000+0  25336-3 0  9990
2 43776  97.4524 111.5817 0019701 348.9052  11.1737 15.05212097396878
STARLINK-5132           
1 54007U 22125AV  26068.66358861  .00000603  00000+0  55956-4 0  9995
2 54007  53.2157 213.8839 0001232  76.9940 283.1190 15.08848065189465
